[{"OBJECT_NAME":"BUFENG 1A","OBJECT_ID":"2019-032A","EPOCH":"2026-03-09T22:03:27.507168","MEAN_MOTION":15.26012088,"ECCENTRICITY":0.00054719,"INCLINATION":44.9758,"RA_OF_ASC_NODE":238.6688,"ARG_OF_PERICENTER":55.4463,"MEAN_ANOMALY":304.6935,"EPHEMERIS_TYPE":0,"CLASSIFICATION_TYPE":"U","NORAD_CAT_ID":44310,"ELEMENT_SET_NO":999,"REV_AT_EPOCH":37201,"BSTAR":0.00062413703,"MEAN_MOTION_DOT":0.00016103,"MEAN_MOTION_DDOT":0},{"OBJECT_NAME":"STARLINK-31612","OBJECT_ID":"2024-057T","EPOCH":"2026-03-09T09:27:18.256320","MEAN_MOTION":15.27578998,"ECCENTRICITY":0.00017222,"INCLINATION":43,"RA_OF_ASC_NODE":188.7578,"ARG_OF_PERICENTER":286.8576,"MEAN_ANOMALY":73.2087,"EPHEMERIS_TYPE":0,"CLASSIFICATION_TYPE":"U","NORAD_CAT_ID":59337,"ELEMENT_SET_NO":999,"REV_AT_EPOCH":10979,"BSTAR":3.5551606e-5,"MEAN_MOTION_DOT":7.16e-6,"MEAN_MOTION_DDOT":0}]
